NORAD_CAT_ID,OBJECT_NAME,OBJECT_TYPE,EPOCH,MEAN_MOTION,ECCENTRICITY,INCLINATION,RA_OF_ASC_NODE,ARG_OF_PERICENTER,MEAN_ANOMALY,BSTAR,MEAN_MOTION_DOT,MEAN_MOTION_DDOT,TLE_LINE0,TLE_LINE1,TLE_LINE2,SEMIMAJOR_AXIS,PERIOD,APOGEE,PERIGEE,DECAYED
51116.0,STARLINK-3243,PAYLOAD,2024-05-07 05:12:31,15.08859,0.0001484,53.2183,63.4467,92.845,267.2712,0.00022098,3.232e-05,0.0,0 STARLINK-3243,1 51116U 22005N   24128.21702578  .00003232  00000-0  22098-3 0  9996,2 51116  53.2183  63.4467 0001484  92.8450 267.2712 15.08859000128614,6917.822,95.436,540.714,538.661,0.0
51116.0,STARLINK-3243,PAYLOAD,2024-05-07 13:09:27,15.08842074,0.0001473,53.2192,61.9638,94.3089,265.8071,5.976e-05,6.63e-06,0.0,0 STARLINK-3243,1 51116U 22005N   24128.54823455  .00000663  00000-0  59760-4 0  9992,2 51116  53.2192  61.9638 0001473  94.3089 265.8071 15.08842074127557,6917.874,95.437,540.758,538.72,0.0
51116.0,STARLINK-3243,PAYLOAD,2024-05-07 19:31:00,15.08841935,0.0001898,53.2175,60.7722,98.2491,261.8717,-1.1016e-05,-4.64e-06,0.0,0 STARLINK-3243,1 51116U 22005N   24128.81319553 -.00000464  00000-0 -11016-4 0  9994,2 51116  53.2175  60.7722 0001898  98.2491 261.8717 15.08841935128706,6917.874,95.437,541.052,538.426,0.0
51116.0,STARLINK-3243,PAYLOAD,2024-05-07 22:41:46,15.08839892,0.000164,53.2182,60.179,100.5201,259.5976,-6.0132e-05,-1.245e-05,0.0,0 STARLINK-3243,1 51116U 22005N   24128.94567569 -.00001245  00000-0 -60132-4 0  9991,2 51116  53.2182  60.1790 0001640 100.5201 259.5976 15.08839892127613,6917.881,95.438,540.88,538.611,0.0
51116.0,STARLINK-3243,PAYLOAD,2024-05-08 05:03:18,15.08842228,0.0001666,53.2185,58.9892,103.6985,256.4192,2.8169e-06,-2.43e-06,0.0,0 STARLINK-3243,1 51116U 22005N   24129.21063555 -.00000243  00000-0  28169-5 0  9999,2 51116  53.2185  58.9892 0001666 103.6985 256.4192 15.08842228127652,6917.874,95.437,540.891,538.586,0.0
51116.0,STARLINK-3243,PAYLOAD,2024-05-08 22:32:33,15.08842723,0.0001667,53.2185,55.7183,104.1074,256.0103,7.7162e-05,9.4e-06,0.0,0 STARLINK-3243,1 51116U 22005N   24129.93927538  .00000940  00000-0  77162-4 0  9997,2 51116  53.2185  55.7183 0001667 104.1074 256.0103 15.08842723127766,6917.872,95.437,540.89,538.584,0.0
51116.0,STARLINK-3243,PAYLOAD,2024-05-09 04:54:05,15.08848525,0.0001736,53.2182,54.5279,108.582,251.5361,0.00018916,2.724e-05,0.0,0 STARLINK-3243,1 51116U 22005N   24130.20423261  .00002724  00000-0  18916-3 0  9996,2 51116  53.2182  54.5279 0001736 108.5820 251.5361 15.08848525128910,6917.854,95.437,540.92,538.518,0.0
51116.0,STARLINK-3243,PAYLOAD,2024-05-09 22:23:20,15.08841181,0.0002013,53.2165,51.2564,120.2362,239.883,0.00020371,2.955e-05,0.0,0 STARLINK-3243,1 51116U 22005N   24130.93287698  .00002955  00000-0  20371-3 0  9992,2 51116  53.2165  51.2564 0002013 120.2362 239.8830 15.08841181127913,6917.877,95.437,541.134,538.349,0.0
51116.0,STARLINK-3243,PAYLOAD,2024-05-10 01:34:06,15.08844337,0.0001581,53.2182,50.6622,108.5142,251.6022,0.00019324,2.789e-05,0.0,0 STARLINK-3243,1 51116U 22005N   24131.06535588  .00002789  00000-0  19324-3 0  9992,2 51116  53.2182  50.6622 0001581 108.5142 251.6022 15.08844337129041,6917.867,95.437,540.826,538.638,0.0
51116.0,STARLINK-3243,PAYLOAD,2024-05-10 11:06:25,15.08840854,0.0001568,53.2187,48.8788,100.2465,259.8704,0.00011043,1.47e-05,0.0,0 STARLINK-3243,1 51116U 22005N   24131.46279833  .00001470  00000-0  11043-3 0  9990,2 51116  53.2187  48.8788 0001568 100.2465 259.8704 15.08840854127999,6917.878,95.438,540.828,538.658,0.0
51116.0,STARLINK-3243,PAYLOAD,2024-05-10 22:14:06,15.08868836,0.0002326,53.2182,46.7942,131.9459,228.1732,0.00046387,7.108e-05,0.0,0 STARLINK-3243,1 51116U 22005N   24131.92646084  .00007108  00000-0  46387-3 0  9990,2 51116  53.2182  46.7942 0002326 131.9459 228.1732 15.08868836128069,6917.792,95.436,541.266,538.048,0.0
51116.0,STARLINK-3243,PAYLOAD,2024-05-11 01:24:51,15.08893708,0.0001713,53.2184,46.1994,125.3113,234.804,0.00088024,0.00013769,0.0,0 STARLINK-3243,1 51116U 22005N   24132.05893206  .00013769  00000-0  88024-3 0  9999,2 51116  53.2184  46.1994 0001713 125.3113 234.8040 15.08893708129192,6917.716,95.434,540.766,538.396,0.0
51116.0,STARLINK-3243,PAYLOAD,2024-05-11 22:04:53,15.08819067,0.000113,53.2178,42.3357,78.8545,281.2574,-0.00064982,-0.00010609,0.0,0 STARLINK-3243,1 51116U 22005N   24132.92006744 -.00010609  00000-0 -64982-3 0  9997,2 51116  53.2178  42.3357 0001130  78.8545 281.2574 15.08819067128216,6917.944,95.439,540.591,539.028,0.0
51116.0,STARLINK-3243,PAYLOAD,2024-05-12 02:51:02,15.08838527,0.0001052,53.2173,41.4465,101.7191,258.3919,-0.00022594,-3.882e-05,0.0,0 STARLINK-3243,1 51116U 22005N   24133.11878204 -.00003882  00000-0 -22594-3 0  9995,2 51116  53.2173  41.4465 0001052 101.7191 258.3919 15.08838527129353,6917.885,95.438,540.478,539.022,0.0
51116.0,STARLINK-3243,PAYLOAD,2024-05-12 06:01:49,15.08843278,0.0001203,53.2174,40.8511,107.1806,252.9318,-0.00010633,-1.98e-05,0.0,0 STARLINK-3243,1 51116U 22005N   24133.25126216 -.00001980  00000-0 -10633-3 0  9997,2 51116  53.2174  40.8511 0001203 107.1806 252.9318 15.08843278128261,6917.87,95.437,540.568,538.903,0.0
51116.0,STARLINK-3243,PAYLOAD,2024-05-12 17:09:34,15.08751615,0.0001309,53.2177,38.7709,93.2695,266.8446,-0.0017295,-0.00027641,0.0,0 STARLINK-3243,1 51116U 22005N   24133.71498554 -.00027641  00000-0 -17295-2 0  9997,2 51116  53.2177  38.7709 0001309  93.2695 266.8446 15.08751615129447,6918.151,95.443,540.921,539.11,0.0
51116.0,STARLINK-3243,PAYLOAD,2024-05-12 21:55:43,15.08791128,0.0001107,53.2182,37.88,82.0943,278.0175,-0.00048634,-8.009e-05,0.0,0 STARLINK-3243,1 51116U 22005N   24133.91370349 -.00008009  00000-0 -48634-3 0  9999,2 51116  53.2182  37.8800 0001107  82.0943 278.0175 15.08791128128360,6918.03,95.441,540.661,539.129,0.0
51116.0,STARLINK-3243,PAYLOAD,2024-05-13 02:41:52,15.08820582,7.39e-05,53.2178,36.986,86.6348,273.4729,0.00034102,5.141e-05,0.0,0 STARLINK-3243,1 51116U 22005N   24134.11241682  .00005141  00000-0  34102-3 0  9996,2 51116  53.2178  36.9860 0000739  86.6348 273.4729 15.08820582129508,6917.94,95.439,540.316,539.294,0.0
51116.0,STARLINK-3243,PAYLOAD,2024-05-13 10:38:48,15.08828341,6.05e-05,53.2182,35.4997,65.7556,294.3499,0.00088591,0.00013835,0.0,0 STARLINK-3243,1 51116U 22005N   24134.44361991  .00013835  00000-0  88591-3 0  9998,2 51116  53.2182  35.4997 0000605  65.7556 294.3499 15.08828341128448,6917.916,95.438,540.2,539.362,0.0
51116.0,STARLINK-3243,PAYLOAD,2024-05-14 02:32:39,15.08861254,2.94e-05,53.2168,32.5253,45.9821,314.1195,0.0012979,0.00020441,0.0,0 STARLINK-3243,1 51116U 22005N   24135.10601129  .00020441  00000-0  12979-2 0  9999,2 51116  53.2168  32.5253 0000294  45.9821 314.1195 15.08861254129652,6917.815,95.436,539.884,539.477,0.0
51116.0,STARLINK-3243,PAYLOAD,2024-05-14 10:29:32,15.08863892,0.0004998,53.2173,31.04,265.3176,94.7245,0.00076829,0.0001197,0.0,0 STARLINK-3243,1 51116U 22005N   24135.43718496  .00011970  00000-0  76829-3 0  9993,2 51116  53.2173  31.0400 0004998 265.3176  94.7245 15.08863892128591,6917.807,95.436,543.13,536.215,0.0
51116.0,STARLINK-3243,PAYLOAD,2024-05-14 23:12:39,15.08850956,4.82e-05,53.2179,28.6561,129.094,231.0095,0.00027036,4.019e-05,0.0,0 STARLINK-3243,1 51116U 22005N   24135.96712892  .00004019  00000-0  27036-3 0  9997,2 51116  53.2179  28.6561 0000482 129.0940 231.0095 15.08850956128671,6917.847,95.437,540.045,539.378,0.0
51116.0,STARLINK-3243,PAYLOAD,2024-05-15 02:23:25,15.08856342,6.68e-05,53.2177,28.0616,115.7803,244.3258,0.0003446,5.203e-05,0.0,0 STARLINK-3243,1 51116U 22005N   24136.09960546  .00005203  00000-0  34460-3 0  9998,2 51116  53.2177  28.0616 0000668 115.7803 244.3258 15.08856342129809,6917.83,95.437,540.158,539.233,0.0
51116.0,STARLINK-3243,PAYLOAD,2024-05-15 10:20:21,15.08850008,9.81e-05,53.2164,26.5778,89.3544,270.7561,-3.5174e-05,-8.48e-06,0.0,0 STARLINK-3243,1 51116U 22005N   24136.43080826 -.00000848  00000-0 -35174-4 0  9996,2 51116  53.2164  26.5778 0000981  89.3544 270.7561 15.08850008129851,6917.85,95.437,540.393,539.036,0.0
51116.0,STARLINK-3243,PAYLOAD,2024-05-15 23:03:26,15.08853539,9.02e-05,53.2173,24.198,104.871,255.2382,-1.0846e-05,-4.6e-06,0.0,0 STARLINK-3243,1 51116U 22005N   24136.96072038 -.00000460  00000-0 -10846-4 0  9999,2 51116  53.2173  24.1980 0000902 104.8710 255.2382 15.08853539128828,6917.839,95.437,540.328,539.08,0.0
51116.0,STARLINK-3243,PAYLOAD,2024-05-16 16:32:40,15.08846135,6.45e-05,53.2176,20.9266,111.6342,248.4719,0.00014034,1.947e-05,0.0,0 STARLINK-3243,1 51116U 22005N   24137.68936189  .00001947  00000-0  14034-3 0  9996,2 51116  53.2176  20.9266 0000645 111.6342 248.4719 15.08846135130042,6917.862,95.437,540.173,539.28,0.0
51116.0,STARLINK-3243,PAYLOAD,2024-05-16 22:54:12,15.08859697,0.0001044,53.2179,19.7359,112.7406,247.3697,0.00033798,5.098e-05,0.0,0 STARLINK-3243,1 51116U 22005N   24137.95431555  .00005098  00000-0  33798-3 0  9992,2 51116  53.2179  19.7359 0001044 112.7406 247.3697 15.08859697128970,6917.82,95.436,540.407,538.963,0.0
51116.0,STARLINK-3243,PAYLOAD,2024-05-17 16:23:28,15.08831487,3.47e-05,53.2178,16.4673,136.1533,223.9487,-3.5924e-05,-8.59e-06,0.0,0 STARLINK-3243,1 51116U 22005N   24138.68297061 -.00000859  00000-0 -35924-4 0  9991,2 51116  53.2178  16.4673 0000347 136.1533 223.9487 15.08831487130199,6917.906,95.438,540.011,539.531,0.0
51116.0,STARLINK-3243,PAYLOAD,2024-05-17 22:45:01,15.08830483,0.000193,53.217,15.2804,108.5887,251.5315,-7.8953e-05,-1.544e-05,0.0,0 STARLINK-3243,1 51116U 22005N   24138.94793161 -.00001544  00000-0 -78953-4 0  9993,2 51116  53.2170  15.2804 0001930 108.5887 251.5315 15.08830483129121,6917.909,95.438,541.11,538.439,0.0
51116.0,STARLINK-3243,PAYLOAD,2024-05-18 08:17:20,15.0884385,4.93e-05,53.2172,13.4936,117.9466,242.1577,0.00027174,4.04e-05,0.0,0 STARLINK-3243,1 51116U 22005N   24139.34537099  .00004040  00000-0  27174-3 0  9994,2 51116  53.2172  13.4936 0000493 117.9466 242.1577 15.08843850130297,6917.869,95.437,540.075,539.393,0.0
